CCSDS_OMM_VERS = 2.0
CREATION_DATE  = 
ORIGINATOR     = 

OBJECT_NAME    = STARLINK-36767
OBJECT_ID      = 2026-032T
CENTER_NAME    = EARTH
REF_FRAME      = TEME
TIME_SYSTEM    = UTC
MEAN_ELEMENT_THEORY = SGP/SGP4

EPOCH          = 2026-03-10T05:56:04.980768
MEAN_MOTION    = 15.75242862
ECCENTRICITY   = .00013448
INCLINATION    = 97.2845
RA_OF_ASC_NODE = 255.7964
ARG_OF_PERICENTER = 78.3436
MEAN_ANOMALY   = 281.7980

EPHEMERIS_TYPE = 0
CLASSIFICATION_TYPE = U
NORAD_CAT_ID   = 67814
ELEMENT_SET_NO = 999
REV_AT_EPOCH   = 487
BSTAR          = .93280182E-3
MEAN_MOTION_DOT = .141658E-2
MEAN_MOTION_DDOT = 0

CCSDS_OMM_VERS = 2.0
CREATION_DATE  = 
ORIGINATOR     = 

OBJECT_NAME    = STARLINK-36797
OBJECT_ID      = 2026-032U
CENTER_NAME    = EARTH
REF_FRAME      = TEME
TIME_SYSTEM    = UTC
MEAN_ELEMENT_THEORY = SGP/SGP4

EPOCH          = 2026-03-10T05:43:22.754784
MEAN_MOTION    = 15.75223844
ECCENTRICITY   = .00014478
INCLINATION    = 97.2849
RA_OF_ASC_NODE = 255.8096
ARG_OF_PERICENTER = 71.5904
MEAN_ANOMALY   = 288.5519

EPHEMERIS_TYPE = 0
CLASSIFICATION_TYPE = U
NORAD_CAT_ID   = 67815
ELEMENT_SET_NO = 999
REV_AT_EPOCH   = 487
BSTAR          = .53826793E-3
MEAN_MOTION_DOT = .81041E-3
MEAN_MOTION_DDOT = 0

CCSDS_OMM_VERS = 2.0
CREATION_DATE  = 
ORIGINATOR     = 

OBJECT_NAME    = STARLINK-36343
OBJECT_ID      = 2026-032V
CENTER_NAME    = EARTH
REF_FRAME      = TEME
TIME_SYSTEM    = UTC
MEAN_ELEMENT_THEORY = SGP/SGP4

EPOCH          = 2026-03-10T06:00:02.000160
MEAN_MOTION    = 15.75189316
ECCENTRICITY   = .00015061
INCLINATION    = 97.2844
RA_OF_ASC_NODE = 255.8696
ARG_OF_PERICENTER = 85.0707
MEAN_ANOMALY   = 92.6061

EPHEMERIS_TYPE = 0
CLASSIFICATION_TYPE = U
NORAD_CAT_ID   = 67816
ELEMENT_SET_NO = 999
REV_AT_EPOCH   = 481
BSTAR          = -.2503604E-3
MEAN_MOTION_DOT = -.37309E-3
MEAN_MOTION_DDOT = 0

CCSDS_OMM_VERS = 2.0
CREATION_DATE  = 
ORIGINATOR     = 

OBJECT_NAME    = STARLINK-36756
OBJECT_ID      = 2026-032W
CENTER_NAME    = EARTH
REF_FRAME      = TEME
TIME_SYSTEM    = UTC
MEAN_ELEMENT_THEORY = SGP/SGP4

EPOCH          = 2026-03-10T05:30:40.362048
MEAN_MOTION    = 15.75241151
ECCENTRICITY   = .00013252
INCLINATION    = 97.2845
RA_OF_ASC_NODE = 255.8205
ARG_OF_PERICENTER = 99.2316
MEAN_ANOMALY   = 260.9099

EPHEMERIS_TYPE = 0
CLASSIFICATION_TYPE = U
NORAD_CAT_ID   = 67817
ELEMENT_SET_NO = 999
REV_AT_EPOCH   = 486
BSTAR          = .75328128E-3
MEAN_MOTION_DOT = .11399E-2
MEAN_MOTION_DDOT = 0

CCSDS_OMM_VERS = 2.0
CREATION_DATE  = 
ORIGINATOR     = 

OBJECT_NAME    = STARLINK-36346
OBJECT_ID      = 2026-032X
CENTER_NAME    = EARTH
REF_FRAME      = TEME
TIME_SYSTEM    = UTC
MEAN_ELEMENT_THEORY = SGP/SGP4

EPOCH          = 2026-03-10T06:00:02.000160
MEAN_MOTION    = 15.75188891
ECCENTRICITY   = .00016882
INCLINATION    = 97.2848
RA_OF_ASC_NODE = 255.8806
ARG_OF_PERICENTER = 83.2773
MEAN_ANOMALY   = 118.3974

EPHEMERIS_TYPE = 0
CLASSIFICATION_TYPE = U
NORAD_CAT_ID   = 67818
ELEMENT_SET_NO = 999
REV_AT_EPOCH   = 487
BSTAR          = -.27523247E-3
MEAN_MOTION_DOT = -.40986E-3
MEAN_MOTION_DDOT = 0

CCSDS_OMM_VERS = 2.0
CREATION_DATE  = 
ORIGINATOR     = 

OBJECT_NAME    = STARLINK-36788
OBJECT_ID      = 2026-032Y
CENTER_NAME    = EARTH
REF_FRAME      = TEME
TIME_SYSTEM    = UTC
MEAN_ELEMENT_THEORY = SGP/SGP4

EPOCH          = 2026-03-10T05:46:25.185792
MEAN_MOTION    = 15.75329153
ECCENTRICITY   = .00012777
INCLINATION    = 97.2846
RA_OF_ASC_NODE = 255.8057
ARG_OF_PERICENTER = 70.2984
MEAN_ANOMALY   = 289.8419

EPHEMERIS_TYPE = 0
CLASSIFICATION_TYPE = U
NORAD_CAT_ID   = 67819
ELEMENT_SET_NO = 999
REV_AT_EPOCH   = 487
BSTAR          = .20021868E-2
MEAN_MOTION_DOT = .311536E-2
MEAN_MOTION_DDOT = 0

CCSDS_OMM_VERS = 2.0
CREATION_DATE  = 
ORIGINATOR     = 

OBJECT_NAME    = STARLINK-36353
OBJECT_ID      = 2026-032Z
CENTER_NAME    = EARTH
REF_FRAME      = TEME
TIME_SYSTEM    = UTC
MEAN_ELEMENT_THEORY = SGP/SGP4

EPOCH          = 2026-03-10T05:40:50.283840
MEAN_MOTION    = 15.75232485
ECCENTRICITY   = .00014358
INCLINATION    = 97.2845
RA_OF_ASC_NODE = 255.8108
ARG_OF_PERICENTER = 81.8918
MEAN_ANOMALY   = 278.2510

EPHEMERIS_TYPE = 0
CLASSIFICATION_TYPE = U
NORAD_CAT_ID   = 67820
ELEMENT_SET_NO = 999
REV_AT_EPOCH   = 487
BSTAR          = .69606533E-3
MEAN_MOTION_DOT = .105174E-2
MEAN_MOTION_DDOT = 0

CCSDS_OMM_VERS = 2.0
CREATION_DATE  = 
ORIGINATOR     = 

OBJECT_NAME    = STARLINK-36644
OBJECT_ID      = 2026-033A
CENTER_NAME    = EARTH
REF_FRAME      = TEME
TIME_SYSTEM    = UTC
MEAN_ELEMENT_THEORY = SGP/SGP4

EPOCH          = 2026-03-10T00:14:22.513056
MEAN_MOTION    = 15.82115049
ECCENTRICITY   = .00016439
INCLINATION    = 42.9990
RA_OF_ASC_NODE = 269.5632
ARG_OF_PERICENTER = 289.5078
MEAN_ANOMALY   = 70.5616

EPHEMERIS_TYPE = 0
CLASSIFICATION_TYPE = U
NORAD_CAT_ID   = 67821
ELEMENT_SET_NO = 999
REV_AT_EPOCH   = 467
BSTAR          = .138357E-2
MEAN_MOTION_DOT = .302609E-2
MEAN_MOTION_DDOT = 0

CCSDS_OMM_VERS = 2.0
CREATION_DATE  = 
ORIGINATOR     = 

OBJECT_NAME    = STARLINK-36643
OBJECT_ID      = 2026-033B
CENTER_NAME    = EARTH
REF_FRAME      = TEME
TIME_SYSTEM    = UTC
MEAN_ELEMENT_THEORY = SGP/SGP4

EPOCH          = 2026-03-10T00:13:17.640480
MEAN_MOTION    = 15.82128842
ECCENTRICITY   = .00017645
INCLINATION    = 42.9985
RA_OF_ASC_NODE = 269.5560
ARG_OF_PERICENTER = 263.9802
MEAN_ANOMALY   = 96.0868

EPHEMERIS_TYPE = 0
CLASSIFICATION_TYPE = U
NORAD_CAT_ID   = 67822
ELEMENT_SET_NO = 999
REV_AT_EPOCH   = 467
BSTAR          = .14268164E-2
MEAN_MOTION_DOT = .312654E-2
MEAN_MOTION_DDOT = 0

CCSDS_OMM_VERS = 2.0
CREATION_DATE  = 
ORIGINATOR     = 

OBJECT_NAME    = STARLINK-36646
OBJECT_ID      = 2026-033C
CENTER_NAME    = EARTH
REF_FRAME      = TEME
TIME_SYSTEM    = UTC
MEAN_ELEMENT_THEORY = SGP/SGP4

EPOCH          = 2026-03-10T00:12:13.019328
MEAN_MOTION    = 15.82124190
ECCENTRICITY   = .00018813
INCLINATION    = 42.9983
RA_OF_ASC_NODE = 269.5506
ARG_OF_PERICENTER = 264.3700
MEAN_ANOMALY   = 95.6957

EPHEMERIS_TYPE = 0
CLASSIFICATION_TYPE = U
NORAD_CAT_ID   = 67823
ELEMENT_SET_NO = 999
REV_AT_EPOCH   = 467
BSTAR          = .14504387E-2
MEAN_MOTION_DOT = .317968E-2
MEAN_MOTION_DDOT = 0

CCSDS_OMM_VERS = 2.0
CREATION_DATE  = 
ORIGINATOR     = 

OBJECT_NAME    = STARLINK-36647
OBJECT_ID      = 2026-033D
CENTER_NAME    = EARTH
REF_FRAME      = TEME
TIME_SYSTEM    = UTC
MEAN_ELEMENT_THEORY = SGP/SGP4

EPOCH          = 2026-03-10T00:11:08.215872
MEAN_MOTION    = 15.82144721
ECCENTRICITY   = .00023367
INCLINATION    = 42.9984
RA_OF_ASC_NODE = 269.5445
ARG_OF_PERICENTER = 279.4556
MEAN_ANOMALY   = 80.6051

EPHEMERIS_TYPE = 0
CLASSIFICATION_TYPE = U
NORAD_CAT_ID   = 67824
ELEMENT_SET_NO = 999
REV_AT_EPOCH   = 467
BSTAR          = .18052412E-2
MEAN_MOTION_DOT = .400088E-2
MEAN_MOTION_DDOT = 0

CCSDS_OMM_VERS = 2.0
CREATION_DATE  = 
ORIGINATOR     = 

OBJECT_NAME    = STARLINK-36648
OBJECT_ID      = 2026-033E
CENTER_NAME    = EARTH
REF_FRAME      = TEME
TIME_SYSTEM    = UTC
MEAN_ELEMENT_THEORY = SGP/SGP4

EPOCH          = 2026-03-10T00:10:03.230976
MEAN_MOTION    = 15.82150307
ECCENTRICITY   = .00026228
INCLINATION    = 42.9984
RA_OF_ASC_NODE = 269.5384
ARG_OF_PERICENTER = 256.0985
MEAN_ANOMALY   = 103.9596

EPHEMERIS_TYPE = 0
CLASSIFICATION_TYPE = U
NORAD_CAT_ID   = 67825
ELEMENT_SET_NO = 999
REV_AT_EPOCH   = 467
BSTAR          = .17490113E-2
MEAN_MOTION_DOT = .387127E-2
MEAN_MOTION_DDOT = 0

